{
  "type": "FeatureCollection",
  "features": [
    {
      "type": "Feature",
      "properties": {
        "norad_id": 67003,
        "name": "STARLINK-35660",
        "group": "last-30-days",
        "lat": -35.30038545439166,
        "lon": 134.9289165676186,
        "alt_km": 305.27071776072535,
        "timestamp": "2025-12-20T22:39:09.409581+00:00",
        "meta_object_name": "STARLINK-35660",
        "meta_object_id": "2025-293A",
        "meta_epoch": "2025-12-20T14:00:03.000384",
        "meta_mean_motion": 15.9122072,
        "meta_eccentricity": 0.00039603,
        "meta_inclination": 69.9936,
        "meta_ra_of_asc_node": 301.0231,
        "meta_arg_of_pericenter": 268.5422,
        "meta_mean_anomaly": 45.4691,
        "meta_ephemeris_type": 0,
        "meta_classification_type": "U",
        "meta_norad_cat_id": 67003,
        "meta_element_set_no": 999,
        "meta_rev_at_epoch": 143,
        "meta_bstar": -0.0035450721,
        "meta_mean_motion_dot": -0.01129576,
        "meta_mean_motion_ddot": 0.00037558513,
        "tle_line1": "1 67003U 25293A   25354.58336806 -.01129576  37559-3 -35451-2 0  9990",
        "tle_line2": "2 67003  69.9936 301.0231 0003960 268.5422  45.4691 15.91220720  1433"
      },
      "geometry": {
        "type": "Point",
        "coordinates": [
          134.9289165676186,
          -35.30038545439166
        ]
      }
    },
    {
      "type": "Feature",
      "properties": {
        "norad_id": 67004,
        "name": "STARLINK-35913",
        "group": "last-30-days",
        "lat": -37.27591435868605,
        "lon": 136.076334429778,
        "alt_km": 305.18573431350524,
        "timestamp": "2025-12-20T22:39:09.409590+00:00",
        "meta_object_name": "STARLINK-35913",
        "meta_object_id": "2025-293B",
        "meta_epoch": "2025-12-20T14:00:03.000384",
        "meta_mean_motion": 15.91265728,
        "meta_eccentricity": 0.00039437,
        "meta_inclination": 69.9937,
        "meta_ra_of_asc_node": 301.0205,
        "meta_arg_of_pericenter": 268.3103,
        "meta_mean_anomaly": 47.8295,
        "meta_ephemeris_type": 0,
        "meta_classification_type": "U",
        "meta_norad_cat_id": 67004,
        "meta_element_set_no": 999,
        "meta_rev_at_epoch": 143,
        "meta_bstar": -0.0035595318,
        "meta_mean_motion_dot": -0.01136727,
        "meta_mean_motion_ddot": 0.00038015705,
        "tle_line1": "1 67004U 25293B   25354.58336806 -.01136727  38016-3 -35595-2 0  9995",
        "tle_line2": "2 67004  69.9937 301.0205 0003943 268.3103  47.8295 15.91265728  1434"
      },
      "geometry": {
        "type": "Point",
        "coordinates": [
          136.076334429778,
          -37.27591435868605
        ]
      }
    },
    {
      "type": "Feature",
      "properties": {
        "norad_id": 67005,
        "name": "STARLINK-36148",
        "group": "last-30-days",
        "lat": -39.36183961019733,
        "lon": 137.3635348313871,
        "alt_km": 305.094741091134,
        "timestamp": "2025-12-20T22:39:09.409602+00:00",
        "meta_object_name": "STARLINK-36148",
        "meta_object_id": "2025-293C",
        "meta_epoch": "2025-12-20T14:00:03.000384",
        "meta_mean_motion": 15.91306878,
        "meta_eccentricity": 0.00039516,
        "meta_inclination": 69.994,
        "meta_ra_of_asc_node": 301.0182,
        "meta_arg_of_pericenter": 268.2946,
        "meta_mean_anomaly": 50.1134,
        "meta_ephemeris_type": 0,
        "meta_classification_type": "U",
        "meta_norad_cat_id": 67005,
        "meta_element_set_no": 999,
        "meta_rev_at_epoch": 143,
        "meta_bstar": -0.0035608038,
        "meta_mean_motion_dot": -0.01139509,
        "meta_mean_motion_ddot": 0.00038203164,
        "tle_line1": "1 67005U 25293C   25354.58336806 -.01139509  38203-3 -35608-2 0  9990",
        "tle_line2": "2 67005  69.9940 301.0182 0003951 268.2946  50.1134 15.91306878  1437"
      },
      "geometry": {
        "type": "Point",
        "coordinates": [
          137.3635348313871,
          -39.36183961019733
        ]
      }
    },
    {
      "type": "Feature",
      "properties": {
        "norad_id": 67006,
        "name": "STARLINK-36156",
        "group": "last-30-days",
        "lat": -44.22242977089326,
        "lon": 140.73526426803525,
        "alt_km": 304.8815575334984,
        "timestamp": "2025-12-20T22:39:09.409611+00:00",
        "meta_object_name": "STARLINK-36156",
        "meta_object_id": "2025-293D",
        "meta_epoch": "2025-12-20T14:00:03.000384",
        "meta_mean_motion": 15.91431223,
        "meta_eccentricity": 0.00040075,
        "meta_inclination": 69.9938,
        "meta_ra_of_asc_node": 301.0113,
        "meta_arg_of_pericenter": 268.5577,
        "meta_mean_anomaly": 55.1956,
        "meta_ephemeris_type": 0,
        "meta_classification_type": "U",
        "meta_norad_cat_id": 67006,
        "meta_element_set_no": 999,
        "meta_rev_at_epoch": 143,
        "meta_bstar": -0.0037262292,
        "meta_mean_motion_dot": -0.01199539,
        "meta_mean_motion_ddot": 0.00042052697,
        "tle_line1": "1 67006U 25293D   25354.58336806 -.01199539  42053-3 -37262-2 0  9996",
        "tle_line2": "2 67006  69.9938 301.0113 0004007 268.5577  55.1956 15.91431223  1435"
      },
      "geometry": {
        "type": "Point",
        "coordinates": [
          140.73526426803525,
          -44.22242977089326
        ]
      }
    },
    {
      "type": "Feature",
      "properties": {
        "norad_id": 67007,
        "name": "STARLINK-36123",
        "group": "last-30-days",
        "lat": -42.0339951923384,
        "lon": 139.14455767758088,
        "alt_km": 304.9644786136714,
        "timestamp": "2025-12-20T22:39:09.409620+00:00",
        "meta_object_name": "STARLINK-36123",
        "meta_object_id": "2025-293E",
        "meta_epoch": "2025-12-20T14:00:03.000384",
        "meta_mean_motion": 15.91376061,
        "meta_eccentricity": 0.00040048,
        "meta_inclination": 69.9938,
        "meta_ra_of_asc_node": 301.0141,
        "meta_arg_of_pericenter": 268.1605,
        "meta_mean_anomaly": 53.1723,
        "meta_ephemeris_type": 0,
        "meta_classification_type": "U",
        "meta_norad_cat_id": 67007,
        "meta_element_set_no": 999,
        "meta_rev_at_epoch": 143,
        "meta_bstar": -0.0036597582,
        "meta_mean_motion_dot": -0.01175035,
        "meta_mean_motion_ddot": 0.00040458776,
        "tle_line1": "1 67007U 25293E   25354.58336806 -.01175035  40459-3 -36598-2 0  9991",
        "tle_line2": "2 67007  69.9938 301.0141 0004004 268.1605  53.1723 15.91376061  1430"
      },
      "geometry": {
        "type": "Point",
        "coordinates": [
          139.14455767758088,
          -42.0339951923384
        ]
      }
    },
    {
      "type": "Feature",
      "properties": {
        "norad_id": 67008,
        "name": "STARLINK-36163",
        "group": "last-30-days",
        "lat": -47.064224707242545,
        "lon": 143.01696575452576,
        "alt_km": 304.7689921742658,
        "timestamp": "2025-12-20T22:39:09.409630+00:00",
        "meta_object_name": "STARLINK-36163",
        "meta_object_id": "2025-293F",
        "meta_epoch": "2025-12-20T14:00:03.000384",
        "meta_mean_motion": 15.91496522,
        "meta_eccentricity": 0.00040137,
        "meta_inclination": 69.9939,
        "meta_ra_of_asc_node": 301.0077,
        "meta_arg_of_pericenter": 267.87,
        "meta_mean_anomaly": 59.0808,
        "meta_ephemeris_type": 0,
        "meta_classification_type": "U",
        "meta_norad_cat_id": 67008,
        "meta_element_set_no": 999,
        "meta_rev_at_epoch": 143,
        "meta_bstar": -0.0038461007,
        "meta_mean_motion_dot": -0.01241879,
        "meta_mean_motion_ddot": 0.00044861623,
        "tle_line1": "1 67008U 25293F   25354.58336806 -.01241879  44862-3 -38461-2 0  9995",
        "tle_line2": "2 67008  69.9939 301.0077 0004013 267.8700  59.0808 15.91496522  1436"
      },
      "geometry": {
        "type": "Point",
        "coordinates": [
          143.01696575452576,
          -47.064224707242545
        ]
      }
    },
    {
      "type": "Feature",
      "properties": {
        "norad_id": 67009,
        "name": "STARLINK-36118",
        "group": "last-30-days",
        "lat": -49.35993503680865,
        "lon": 145.0785848464763,
        "alt_km": 304.7103074014349,
        "timestamp": "2025-12-20T22:39:09.409638+00:00",
        "meta_object_name": "STARLINK-36118",
        "meta_object_id": "2025-293G",
        "meta_epoch": "2025-12-20T14:00:03.000384",
        "meta_mean_motion": 15.91551107,
        "meta_eccentricity": 0.00039789,
        "meta_inclination": 69.9939,
        "meta_ra_of_asc_node": 301.0046,
        "meta_arg_of_pericenter": 268.1967,
        "meta_mean_anomaly": 61.3769,
        "meta_ephemeris_type": 0,
        "meta_classification_type": "U",
        "meta_norad_cat_id": 67009,
        "meta_element_set_no": 999,
        "meta_rev_at_epoch": 137,
        "meta_bstar": -0.0039337123,
        "meta_mean_motion_dot": -0.01273404,
        "meta_mean_motion_ddot": 0.00047010771,
        "tle_line1": "1 67009U 25293G   25354.58336806 -.01273404  47011-3 -39337-2 0  9997",
        "tle_line2": "2 67009  69.9939 301.0046 0003978 268.1967  61.3769 15.91551107  1377"
      },
      "geometry": {
        "type": "Point",
        "coordinates": [
          145.0785848464763,
          -49.35993503680865
        ]
      }
    }
  ]
}